1 44759U 19074AY  22365.14348849  .00009862  00000-0  67986-3 0  9993
2 44759  53.0534  54.4762 0001633  77.3019 282.8152 15.06409578172844
1 44759U 19074AY  22365.54156326  .00014514  00000-0  99046-3 0  9996
2 44759  53.0531  52.6901 0001533  71.9581 288.1575 15.06431045170377
1 44759U 19074AY  23001.20502975 -.00002330  00000-0 -13755-3 0  9990
2 44759  53.0535  49.7106 0001605  70.5488 289.5675 15.06408196173006
1 44759U 19074AY  23001.40407372  .00004028  00000-0  28922-3 0  9993
2 44759  53.0541  48.8179 0001416  73.9195 286.1949 15.06391097170505
1 44759U 19074AY  23001.40407372  .00004028  00000-0  28922-3 0  9993
2 44759  53.0541  48.8179 0001416  73.9195 286.1949 15.06391097173036
1 44759U 19074AY  23002.39927817  .00017008  00000-0  11576-2 0  9991
2 44759  53.0544  44.3508 0001427  68.5341 291.5800 15.06410160170655
1 44759U 19074AY  23002.79735972  .00007977  00000-0  55378-3 0  9997
2 44759  53.0543  42.5631 0001415  71.7973 288.3170 15.06403795170712
1 44759U 19074AY  23002.79735972  .00007977  00000-0  55378-3 0  9997
2 44759  53.0543  42.5631 0001415  71.7973 288.3170 15.06403795173243
1 44759U 19074AY  23003.12909486  .00002319  00000-0  17452-3 0  9994
2 44759  53.0548  41.0738 0001437  68.1156 291.9986 15.06395423173295
1 44759U 19074AY  23003.39448454  .00000335  00000-0  41402-4 0  9995
2 44759  53.0541  39.8822 0001449  65.5426 294.5714 15.06393206170800
1 44759U 19074AY  23004.25699254 -.00000283  00000-0 -87652-7 0  9991
2 44759  53.0543  36.0099 0001501  65.8391 294.2755 15.06398154170933
1 44759U 19074AY  23004.25699254 -.00000283  00000-0 -87652-7 0  9991
2 44759  53.0543  36.0099 0001501  65.8391 294.2755 15.06398154173464
1 44759U 19074AY  23004.78777132  .00000014  00000-0  19864-4 0  9998
2 44759  53.0557  33.6276 0001537  72.2604 287.8552 15.06397856171017
1 44759U 19074AY  23005.18585750  .00000727  00000-0  67721-4 0  9992
2 44759  53.0552  31.8395 0001454  71.0671 289.0475 15.06390771173607
1 44759U 19074AY  23005.45124107  .00001700  00000-0  13304-3 0  9996
2 44759  53.0551  30.6482 0001473  71.7654 288.3495 15.06396301171112
1 44759U 19074AY  23005.78298241 -.00000133  00000-0  99678-5 0  9993
2 44759  53.0546  29.1586 0001431  76.9295 283.1854 15.06390319171166
1 44759U 19074AY  23006.31375585  .00000714  00000-0  66841-4 0  9999
2 44759  53.0543  26.7762 0001394  79.5599 280.5547 15.06393881171242
1 44759U 19074AY  23006.31375585  .00000714  00000-0  66841-4 0  9999
2 44759  53.0543  26.7762 0001394  79.5599 280.5547 15.06393881173772
1 44759U 19074AY  23007.04357756  .00001464  00000-0  11720-3 0  9998
2 44759  53.0544  23.5011 0001502  81.4883 278.6276 15.06388824171354
1 44759U 19074AY  23007.04357756  .00001464  00000-0  11720-3 0  9998
2 44759  53.0544  23.5011 0001502  81.4883 278.6276 15.06388824173884
1 44759U 19074AY  23008.30416641  .00005463  00000-0  38534-3 0  9992
2 44759  53.0531  17.8414 0001604  92.4466 267.6706 15.06400393171548
1 44759U 19074AY  23008.30416641  .00005463  00000-0  38534-3 0  9992
2 44759  53.0531  17.8414 0001604  92.4466 267.6706 15.06400393174079
1 44759U 19074AY  23009.03398253  .00001364  00000-0  11044-3 0  9994
2 44759  53.0560  14.5677 0001198  90.7827 269.3299 15.06397623174185
1 44759U 19074AY  23009.43205748  .00002804  00000-0  20701-3 0  9994
2 44759  53.0546  12.7788 0001523  99.7357 260.3804 15.06407310171715
1 44759U 19074AY  23009.43205748  .00002804  00000-0  20701-3 0  9994
2 44759  53.0546  12.7788 0001523  99.7357 260.3804 15.06407310174246
1 44759U 19074AY  23009.69745135 -.00000577  00000-0 -19841-4 0  9992
2 44759  53.0541  11.5865 0001772  94.6133 265.5058 15.06394498171759
1 44759U 19074AY  23009.69745135 -.00000577  00000-0 -19841-4 0  9992
2 44759  53.0541  11.5865 0001772  94.6133 265.5058 15.06394498174280
1 44759U 19074AY  23010.36091815 -.00000601  00000-0 -21463-4 0  9998
2 44759  53.0538   8.6075 0001121  91.7872 268.3245 15.06397746171850
1 44759U 19074AY  23010.95804330 -.00000133  00000-0  99674-5 0  9996
2 44759  53.0534   5.9282 0001469  96.2825 263.8331 15.06396133171944
1 44759U 19074AY  23011.15708270  .00000739  00000-0  68489-4 0  9995
2 44759  53.0542   5.0341 0001332  94.1761 265.9380 15.06399717174508
1 44759U 19074AY  23011.28977499  .00002024  00000-0  15473-3 0  9993
2 44759  53.0540   4.4383 0001375  92.8242 267.2905 15.06403896171993
1 44759U 19074AY  23011.82055759  .00001699  00000-0  13295-3 0  9996
2 44759  53.0539   2.0565 0001461  83.7838 276.3317 15.06392700172072
1 44759U 19074AY  23012.08594533  .00002619  00000-0  19469-3 0  9995
2 44759  53.0536   0.8645 0001371  85.1423 274.9722 15.06393759174644
1 44759U 19074AY  23012.94845423  .00001455  00000-0  11660-3 0  9999
2 44759  53.0534 356.9918 0001380  90.5968 269.5179 15.06394623172245
1 44759U 19074AY  23013.14749264  .00002942  00000-0  21634-3 0  9992
2 44759  53.0546 356.0984 0001302  95.4086 264.7052 15.06401281174801
1 44759U 19074AY  23013.21383808  .00003108  00000-0  22745-3 0  9997
2 44759  53.0541 355.8001 0001418  99.0229 261.0921 15.06403783172284
1 44759U 19074AY  23013.94365490  .00002676  00000-0  19848-3 0  9993
2 44759  53.0544 352.5238 0001585 101.5616 258.5551 15.06400705172390
1 44759U 19074AY  23014.34172942  .00007867  00000-0  54620-3 0  9990
2 44759  53.0537 350.7369 0001528 105.2893 254.8265 15.06418263174988
1 44759U 19074AY  23014.93885526  .00003364  00000-0  24463-3 0  9994
2 44759  53.0532 348.0557 0001755 109.5864 250.5315 15.06403447175077
1 44759U 19074AY  23015.60232339  .00004146  00000-0  29707-3 0  9992
2 44759  53.0520 345.0783 0001632  99.5609 260.5564 15.06402444172644
1 44759U 19074AY  23016.13309124  .00009017  00000-0  62317-3 0  9994
2 44759  53.0541 342.6959 0001331  98.8011 261.3129 15.06417292175253
1 44759U 19074AY  23016.19943338  .00016486  00000-0  11221-2 0  9996
2 44759  53.0532 342.3962 0001268  95.4325 264.6809 15.06431160175266
1 44759U 19074AY  23016.59751512  .00003093  00000-0  22633-3 0  9991
2 44759  53.0542 340.6115 0001225  82.9454 277.1674 15.06413594172790
1 44759U 19074AY  23016.59751512  .00003093  00000-0  22633-3 0  9991
2 44759  53.0542 340.6115 0001225  82.9454 277.1674 15.06413594175322
1 44759U 19074AY  23016.92926241 -.00012826  00000-0 -84435-3 0  9995
2 44759  53.0550 339.1236 0001608  86.4189 273.6984 15.06372475172848
1 44759U 19074AY  23016.99561043 -.00012377  00000-0 -81406-3 0  9993
2 44759  53.0557 338.8254 0001618  84.9627 275.1547 15.06371727175385
1 44759U 19074AY  23017.26100035 -.00006264  00000-0 -40229-3 0  9990
2 44759  53.0521 337.6315 0001204  82.2518 277.8608 15.06375512175420
1 44759U 19074AY  23017.59273720  .00000961  00000-0  83397-4 0  9998
2 44759  53.0540 336.1415 0001465  80.6756 279.4399 15.06388224172944
1 44759U 19074AY  23017.59273720  .00000961  00000-0  83397-4 0  9998
2 44759  53.0540 336.1415 0001465  80.6756 279.4399 15.06388224175475
1 44759U 19074AY  23018.25620454  .00040428  00000-0  27148-2 0  9994
2 44759  53.0532 333.1635 0001339  80.6689 279.4451 15.06436310175572
1 44759U 19074AY  23018.32254961  .00041428  00000-0  27807-2 0  9991
2 44759  53.0531 332.8662 0001327  81.2435 278.8704 15.06441885173058
1 44759U 19074AY  23019.11871057  .00035730  00000-0  24031-2 0  9995
2 44759  53.0533 329.2910 0001856  83.8278 276.2923 15.06435807175702
1 44759U 19074AY  23019.25140193  .00020728  00000-0  14053-2 0  9994
2 44759  53.0534 328.6941 0001483  80.9653 279.1503 15.06427146173195
1 44759U 19074AY  23019.25140193  .00020728  00000-0  14053-2 0  9994
2 44759  53.0534 328.6941 0001483  80.9653 279.1503 15.06427146175726
1 44759U 19074AY  23020.11391426  .00030512  00000-0  20577-2 0  9998
2 44759  53.0538 324.8242 0001093  88.5793 271.5321 15.06413262175850
1 44759U 19074AY  23021.10912326  .00008011  00000-0  55613-3 0  9995
2 44759  53.0538 320.3567 0001285  73.5309 286.5821 15.06396046176000
1 44759U 19074AY  23022.17066971  .00004402  00000-0  31421-3 0  9990
2 44759  53.0546 315.5899 0001543  83.6339 276.4826 15.06402894176164
1 44759U 19074AY  23022.50240584  .00000845  00000-0  75605-4 0  9991
2 44759  53.0545 314.1006 0001480  82.5515 277.5642 15.06395692176213
1 44759U 19074AY  23023.76300507  .00000710  00000-0  66584-4 0  9999
2 44759  53.0540 308.4446 0001412 113.1045 247.0093 15.06384037176400
1 44759U 19074AY  23024.16107688  .00002626  00000-0  19513-3 0  9996
2 44759  53.0537 306.6569 0001371 111.5921 248.5215 15.06398255176466
1 44759U 19074AY  23024.55916305  .00001818  00000-0  14090-3 0  9990
2 44759  53.0537 304.8700 0001349 106.2046 253.9091 15.06394520176527
1 44759U 19074AY  23025.15627355  .00002197  00000-0  16632-3 0  9996
2 44759  53.0535 302.1875 0001334 115.0005 245.1123 15.06411268176614
1 44759U 19074AY  23025.48802131  .00000383  00000-0  44601-4 0  9992
2 44759  53.0545 300.6981 0001230  98.6277 261.4852 15.06394414176666
1 44759U 19074AY  23025.55436814  .00000069  00000-0  23522-4 0  9991
2 44759  53.0528 300.4017 0001434  95.1478 264.9675 15.06395537174145
1 44759U 19074AY  23026.15148396  .00002212  00000-0  16732-3 0  9999
2 44759  53.0537 297.7189 0001274 109.2903 250.8223 15.06402565174238
1 44759U 19074AY  23026.15148396  .00002212  00000-0  16732-3 0  9999
2 44759  53.0537 297.7189 0001274 109.2903 250.8223 15.06402565176768
1 44759U 19074AY  23027.14667971  .00000954  00000-0  82887-4 0  9990
2 44759  53.0540 293.2495 0001360 108.0239 252.0899 15.06412055174382
1 44759U 19074AY  23027.87651200  .00003261  00000-0  23779-3 0  9996
2 44759  53.0540 289.9710 0001053 112.2628 247.8472 15.06383012174493
1 44759U 19074AY  23028.14189306  .00000610  00000-0  59858-4 0  9993
2 44759  53.0537 288.7838 0001260  91.3037 268.8096 15.06399558174530
1 44759U 19074AY  23028.14189306  .00000610  00000-0  59858-4 0  9993
2 44759  53.0537 288.7838 0001260  91.3037 268.8096 15.06399558177061
1 44759U 19074AY  23028.73902001 -.00000757  00000-0 -31909-4 0  9994
2 44759  53.0532 286.1038 0001229  95.3733 264.7396 15.06396100177150
1 44759U 19074AY  23028.87171177 -.00000538  00000-0 -17245-4 0  9995
2 44759  53.0534 285.5077 0001230  94.0376 266.0753 15.06398155174644
1 44759U 19074AY  23029.13709369  .00000170  00000-0  30269-4 0  9996
2 44759  53.0533 284.3164 0001229  94.0041 266.1088 15.06404102177212
1 44759U 19074AY  23029.73422395  .00000386  00000-0  44816-4 0  9995
2 44759  53.0529 281.6360 0001163  96.0552 264.0570 15.06391987177300
1 44759U 19074AY  23029.86691666  .00000558  00000-0  56355-4 0  9990
2 44759  53.0529 281.0403 0001161  96.1010 264.0111 15.06393386174796
1 44759U 19074AY  23030.06595586  .00000805  00000-0  72930-4 0  9990
2 44759  53.0527 280.1467 0001140  92.9984 267.1135 15.06395582174829
1 44759U 19074AY  23030.92846436  .00000341  00000-0  41777-4 0  9998
2 44759  53.0523 276.2746 0001072  96.1919 263.9192 15.06398695174958
1 44759U 19074AY  23031.06115364  .00000829  00000-0  74539-4 0  9996
2 44759  53.0525 275.6786 0001140  96.2169 263.8950 15.06403744174976
1 44759U 19074AY  23031.06115364  .00000829  00000-0  74539-4 0  9996
2 44759  53.0525 275.6786 0001140  96.2169 263.8950 15.06403744177508
1 44759U 19074AY  23031.65828147  .00000906  00000-0  79726-4 0  9990
2 44759  53.0522 272.9979 0001245  93.4179 266.6953 15.06394582177597
1 44759U 19074AY  23031.92366704  .00000738  00000-0  68407-4 0  9993
2 44759  53.0517 271.8072 0001226  91.8270 268.2859 15.06397867175103
